{
"type": "FeatureCollection",
"name": "hospitals.geojson",
"crs": { "type": "name", "properties": { "name": "urn:ogc:def:crs:OGC:1.3:CRS84" } },
"features": [
{ "type": "Feature", "properties": { "osm_id": "('node', 10093848159)", "name": "Unnamed hospital 1", "lat": 30.6687207, "lon": 76.7207238, "node_id": 11867947557, "type": "Hospital", "capacity": 446 }, "geometry": { "type": "Point", "coordinates": [ 76.7207238, 30.6687207 ] } },
{ "type": "Feature", "properties": { "osm_id": "('way', 113779330)", "name": "Superintended Hospital Engineer Building", "lat": 30.76522785, "lon": 76.775576887835882, "node_id": 6968293920, "type": "Hospital", "capacity": 807 }, "geometry": { "type": "Point", "coordinates": [ 76.775576887835882, 30.76522785 ] } },
{ "type": "Feature", "properties": { "osm_id": "('way', 129023343)", "name": "Ivy Health and Life Sciences Pvt. Ltd", "lat": 30.70663265, "lon": 76.708315787819728, "node_id": 1424396439, "type": "Hospital", "capacity": 966 }, "geometry": { "type": "Point", "coordinates": [ 76.708315787819728, 30.70663265 ] } },
{ "type": "Feature", "properties": { "osm_id": "('way', 129453616)", "name": "GMCH SECTOR 32", "lat": 30.7091585, "lon": 76.781313633623895, "node_id": 5527027214, "type": "Hospital", "capacity": 119 }, "geometry": { "type": "Point", "coordinates": [ 76.781313633623895, 30.7091585 ] } },
{ "type": "Feature", "properties": { "osm_id": "('way', 129453735)", "name": "Unnamed hospital 5", "lat": 30.70844215, "lon": 76.777396499795771, "node_id": 1428254763, "type": "Hospital", "capacity": 606 }, "geometry": { "type": "Point", "coordinates": [ 76.777396499795771, 30.70844215 ] } },
{ "type": "Feature", "properties": { "osm_id": "('way', 129782458)", "name": "GMSH Sector-16", "lat": 30.7508839, "lon": 76.780905370860296, "node_id": 10277173475, "type": "Hospital", "capacity": 127 }, "geometry": { "type": "Point", "coordinates": [ 76.780905370860296, 30.7508839 ] } },
{ "type": "Feature", "properties": { "osm_id": "('way', 129877132)", "name": "Civil Hospital Panchkula", "lat": 30.70461135, "lon": 76.855634743904375, "node_id": 6877544472, "type": "Hospital", "capacity": 15 }, "geometry": { "type": "Point", "coordinates": [ 76.855634743904375, 30.70461135 ] } },
{ "type": "Feature", "properties": { "osm_id": "('way', 130274562)", "name": "Command Hospital", "lat": 30.71324535, "lon": 76.855181331882207, "node_id": 10733461079, "type": "Hospital", "capacity": 31 }, "geometry": { "type": "Point", "coordinates": [ 76.855181331882207, 30.71324535 ] } },
{ "type": "Feature", "properties": { "osm_id": "('way', 130282368)", "name": "Alchemist Hospital, Panchkula", "lat": 30.6745527, "lon": 76.86482749038268, "node_id": 1435398985, "type": "Hospital", "capacity": 592 }, "geometry": { "type": "Point", "coordinates": [ 76.86482749038268, 30.6745527 ] } },
{ "type": "Feature", "properties": { "osm_id": "('way', 155001233)", "name": "Cancer Hospital", "lat": 30.7633794, "lon": 76.780993810868836, "node_id": 6330060302, "type": "Hospital", "capacity": 810 }, "geometry": { "type": "Point", "coordinates": [ 76.780993810868836, 30.7633794 ] } },
{ "type": "Feature", "properties": { "osm_id": "('way', 155001235)", "name": "New OPD", "lat": 30.762894, "lon": 76.780795700749806, "node_id": 6330060302, "type": "Hospital", "capacity": 358 }, "geometry": { "type": "Point", "coordinates": [ 76.780795700749806, 30.762894 ] } },
{ "type": "Feature", "properties": { "osm_id": "('way', 410543291)", "name": "Fortis Hospital", "lat": 30.6947989, "lon": 76.731069870626357, "node_id": 4833992753, "type": "Hospital", "capacity": 83 }, "geometry": { "type": "Point", "coordinates": [ 76.731069870626357, 30.6947989 ] } },
{ "type": "Feature", "properties": { "osm_id": "('way', 1058106342)", "name": "Ojas Hospital", "lat": 30.6609955, "lon": 76.882277401807158, "node_id": 1435398657, "type": "Hospital", "capacity": 536 }, "geometry": { "type": "Point", "coordinates": [ 76.882277401807158, 30.6609955 ] } },
{ "type": "Feature", "properties": { "osm_id": "('way', 1059472337)", "name": "Government Poly Clinic", "lat": 30.66148005, "lon": 76.88242750816454, "node_id": 1435398657, "type": "Hospital", "capacity": 70 }, "geometry": { "type": "Point", "coordinates": [ 76.88242750816454, 30.66148005 ] } },
{ "type": "Feature", "properties": { "osm_id": "('way', 1097915747)", "name": "Om Hospital", "lat": 30.65683185, "lon": 76.883795700019192, "node_id": 1435398657, "type": "Hospital", "capacity": 378 }, "geometry": { "type": "Point", "coordinates": [ 76.883795700019192, 30.65683185 ] } },
{ "type": "Feature", "properties": { "osm_id": "('way', 1099801803)", "name": "Paras Hospital", "lat": 30.6933977, "lon": 76.88328244085514, "node_id": 1432142597, "type": "Hospital", "capacity": 731 }, "geometry": { "type": "Point", "coordinates": [ 76.88328244085514, 30.6933977 ] } },
{ "type": "Feature", "properties": { "osm_id": "('way', 1153423420)", "name": "RHTC Palsora", "lat": 30.734796, "lon": 76.717811114653301, "node_id": 10088686434, "type": "Hospital", "capacity": 591 }, "geometry": { "type": "Point", "coordinates": [ 76.717811114653301, 30.734796 ] } },
{ "type": "Feature", "properties": { "osm_id": "('way', 1194654675)", "name": "Bright Kidney Care Hospital", "lat": 30.65774645, "lon": 76.876993775275523, "node_id": 9169316691, "type": "Hospital", "capacity": 533 }, "geometry": { "type": "Point", "coordinates": [ 76.876993775275523, 30.65774645 ] } },
{ "type": "Feature", "properties": { "osm_id": "('way', 1207648642)", "name": "Prolife Hospital", "lat": 30.68356105, "lon": 76.865881667294246, "node_id": 1985586732, "type": "Hospital", "capacity": 525 }, "geometry": { "type": "Point", "coordinates": [ 76.865881667294246, 30.68356105 ] } },
{ "type": "Feature", "properties": { "osm_id": "('way', 1360772601)", "name": "Mental Health Institute", "lat": 30.70426345, "lon": 76.775148142660811, "node_id": 12749642680, "type": "Hospital", "capacity": 328 }, "geometry": { "type": "Point", "coordinates": [ 76.775148142660811, 30.70426345 ] } },
{ "type": "Feature", "properties": { "osm_id": "('way', 1462760191)", "name": "Mother Teresa Saket Orthopaedic Hospital", "lat": 30.7012327, "lon": 76.867046643608703, "node_id": 1432156332, "type": "Hospital", "capacity": 443 }, "geometry": { "type": "Point", "coordinates": [ 76.867046643608703, 30.7012327 ] } }
]
}
